     2.100          NAVIGATION                              RINEX VERSION / TYPE
fic2rin                                 03/02/2016 00:17:53 PGM / RUN BY / DATE
                                                            END OF HEADER
25 16  3  2  0  0  0.0 -.126515515149D-03 -.682121026330D-11  .000000000000D+00
     .500000000000D+02 -.230937500000D+02  .430125059292D-08 -.276222154411D+01
    -.122003257275D-05  .523768470157D-02  .517442822456D-05  .515354881287D+04
     .259200000000D+06  .558793544769D-08 -.275535674104D+01 -.113621354103D-06
     .978820688976D+00  .287687500000D+03  .704753215549D+00 -.807712215884D-08
    -.885751180806D-10  .100000000000D+01  .188600000000D+04  .000000000000D+00
     .240000000000D+01  .000000000000D+00  .558793544769D-08  .500000000000D+02
     .252006000000D+06  .400000000000D+01
27 16  3  2  0  0  0.0  .679041258991D-04  .363797880709D-11  .000000000000D+00
     .500000000000D+02 -.497500000000D+02  .433696636634D-08  .109282117552D+01
    -.238977372646D-05  .328546494711D-02  .731274485588D-05  .515363654327D+04
     .259200000000D+06  .298023223877D-07 -.171346953517D+01  .335276126862D-07
     .970149165990D+00  .240937500000D+03  .205885905894D+00 -.802854870699D-08
    -.628597612185D-10  .100000000000D+01  .188600000000D+04  .000000000000D+00
     .240000000000D+01  .000000000000D+00  .139698386192D-08  .500000000000D+02
     .252006000000D+06  .400000000000D+01
28 16  3  2  0  0  0.0  .506145879626D-03  .261479726760D-11  .000000000000D+00
     .450000000000D+02 -.293437500000D+02  .395087885568D-08  .180186803369D+01
    -.193342566490D-05  .198764911620D-01  .543519854546D-05  .515362550735D+04
     .259200000000D+06  .186264514923D-06 -.268169568071D+01 -.437721610069D-06
     .989706964605D+00  .288312500000D+03 -.162074565310D+01 -.774567978151D-08
    -.119647840956D-09  .100000000000D+01  .188600000000D+04  .000000000000D+00
     .340000000000D+01  .000000000000D+00 -.107102096081D-07  .450000000000D+02
     .252006000000D+06  .400000000000D+01
29 16  3  2  0  0  0.0  .655173789710D-03  .568434188608D-12  .000000000000D+00
     .830000000000D+02 -.539687500000D+02  .404552565524D-08 -.269124989775D+01
    -.291317701340D-05  .105748127680D-02  .858679413795D-05  .515361198807D+04
     .259200000000D+06 -.204890966415D-07 -.165440935256D+01  .242143869400D-07
     .976139079677D+00  .220093750000D+03 -.530071235252D+00 -.785068415536D-08
    -.175007289756D-10  .100000000000D+01  .188600000000D+04  .000000000000D+00
     .240000000000D+01  .000000000000D+00 -.102445483208D-07  .830000000000D+02
     .252006000000D+06  .400000000000D+01
30 16  3  2  0  0  0.0  .102267600596D-03  .409272615798D-11  .000000000000D+00
     .250000000000D+02  .543750000000D+02  .485198781905D-08 -.168073691870D+01
     .268220901489D-05  .173153693322D-02  .579282641411D-05  .515363198662D+04
     .259200000000D+06  .298023223877D-07  .254928365039D+01  .000000000000D+00
     .953127054985D+00  .266343750000D+03  .299551434832D+01 -.829213111483D-08
     .625026034843D-10  .100000000000D+01  .188600000000D+04  .000000000000D+00
     .240000000000D+01  .000000000000D+00  .325962901115D-08  .250000000000D+02
     .252006000000D+06  .400000000000D+01
32 16  3  2  0  0  0.0  .931974500418D-05  .250111042988D-11  .000000000000D+00
     .830000000000D+02  .285312500000D+02  .442411285349D-08 -.119678318257D+01
     .145286321640D-05  .837148400024D-04  .923685729504D-05  .516564784050D+04
     .259200000000D+06 -.316649675369D-07  .142675420599D+01  .000000000000D+00
     .959887796300D+00  .193000000000D+03  .205500314336D+00 -.790640076190D-08
    -.832177520677D-10  .100000000000D+01  .188600000000D+04  .000000000000D+00
     .340000000000D+01  .630000000000D+02  .279396772385D-08  .830000000000D+02
     .252006000000D+06  .400000000000D+01
 8 16  3  1 23 59 44.0 -.259028747678D-04 -.147792889038D-11  .000000000000D+00
     .100000000000D+01 -.473750000000D+02  .445661420730D-08  .215048368389D+01
    -.239908695221D-05  .182749901433D-02  .725127756596D-05  .515365866280D+04
     .259184000000D+06  .186264514923D-07 -.171547837478D+01 -.391155481339D-07
     .962065819457D+00  .235406250000D+03 -.132627877453D+01 -.806747890002D-08
    -.617882880159D-10  .100000000000D+01  .188600000000D+04  .000000000000D+00
     .240000000000D+01  .000000000000D+00  .465661287308D-08  .100000000000D+01
     .253506000000D+06  .400000000000D+01
11 16  3  1 23 59 44.0 -.634799245745D-03 -.181898940355D-11  .000000000000D+00
     .200000000000D+01 -.182500000000D+02  .591060334321D-08 -.167906452684D+01
    -.761821866035D-06  .162102960749D-01  .737421214581D-05  .515365594101D+04
     .259184000000D+06  .195577740669D-06 -.102628784268D+01  .372529029846D-06
     .895690035577D+00  .200437500000D+03  .150509934861D+01 -.867893294096D-08
     .821462788651D-10  .100000000000D+01  .188600000000D+04  .000000000000D+00
     .240000000000D+01  .000000000000D+00 -.121071934700D-07  .200000000000D+01
     .253956000000D+06  .400000000000D+01
12 16  3  1 23 59 44.0  .370664056391D-03  .159161572810D-11  .000000000000D+00
     .130000000000D+02 -.300000000000D+02  .407624122038D-08 -.222387246444D+01
    -.145472586155D-05  .592101528309D-02  .538304448128D-05  .515377626801D+04
     .259184000000D+06  .968575477600D-07 -.270548855841D+01 -.447034835815D-07
     .990513573746D+00  .290750000000D+03  .679786580160D+00 -.795390274055D-08
    -.507163982558D-10  .100000000000D+01  .188600000000D+04  .000000000000D+00
     .240000000000D+01  .000000000000D+00 -.121071934700D-07  .130000000000D+02
     .253956000000D+06  .400000000000D+01
28 16  3  1 23 59 44.0  .506151001900D-03  .272848410532D-11  .000000000000D+00
     .700000000000D+01 -.293437500000D+02  .395087885568D-08  .179953424340D+01
    -.193342566490D-05  .198764903471D-01  .543519854546D-05  .515362550926D+04
     .259184000000D+06  .186264514923D-06 -.268169553003D+01 -.437721610069D-06
     .989706970456D+00  .288312500000D+03 -.162074569991D+01 -.774567978151D-08
    -.119647840956D-09  .100000000000D+01  .188600000000D+04  .000000000000D+00
     .240000000000D+01  .000000000000D+00 -.107102096081D-07  .700000000000D+01
     .254346000000D+06  .400000000000D+01
23 16  3  1 23 59 44.0 -.162634532899D-03 -.181898940355D-11  .000000000000D+00
     .140000000000D+02  .307500000000D+02  .487948896459D-08 -.236653905311D+00
     .174343585968D-05  .105320500443D-01  .850856304169D-05  .515371940994D+04
     .259184000000D+06  .856816768646D-07  .143183688079D+01  .154599547386D-06
     .946226136860D+00  .208937500000D+03 -.260790173037D+01 -.834963351004D-08
    -.485734518507D-10  .100000000000D+01  .188600000000D+04  .000000000000D+00
     .240000000000D+01  .000000000000D+00 -.200234353542D-07  .140000000000D+02
     .257466000000D+06  .400000000000D+01
